{
  "type": "FeatureCollection",
  "features": [
    {
      "type": "Feature",
      "properties": {
        "norad_id": 67052,
        "name": "STARLINK-35720",
        "group": "last-30-days",
        "lat": -22.230435768589025,
        "lon": 107.38346042742039,
        "alt_km": 309.5883968144635,
        "timestamp": "2025-12-20T16:47:35.026853+00:00",
        "meta_object_name": "STARLINK-35720",
        "meta_object_id": "2025-294Y",
        "meta_epoch": "2025-12-20T12:00:02.000160",
        "meta_mean_motion": 15.88601143,
        "meta_eccentricity": 0.0001543,
        "meta_inclination": 43.0004,
        "meta_ra_of_asc_node": 134.6342,
        "meta_arg_of_pericenter": 265.7689,
        "meta_mean_anomaly": 357.408,
        "meta_ephemeris_type": 0,
        "meta_classification_type": "U",
        "meta_norad_cat_id": 67052,
        "meta_element_set_no": 999,
        "meta_rev_at_epoch": 154,
        "meta_bstar": -0.006006,
        "meta_mean_motion_dot": -0.01536287,
        "meta_mean_motion_ddot": 0,
        "tle_line1": "1 67052U 25294Y   25354.50002315 -.01536287  00000+0 -60060-2 0  9994",
        "tle_line2": "2 67052  43.0004 134.6342 0001543 265.7689 357.4080 15.88601143  1546"
      },
      "geometry": {
        "type": "Point",
        "coordinates": [
          107.38346042742039,
          -22.230435768589025
        ]
      }
    },
    {
      "type": "Feature",
      "properties": {
        "norad_id": 67053,
        "name": "STARLINK-35739",
        "group": "last-30-days",
        "lat": -20.856954948467855,
        "lon": 109.25875080065278,
        "alt_km": 309.4274822893067,
        "timestamp": "2025-12-20T16:47:35.026863+00:00",
        "meta_object_name": "STARLINK-35739",
        "meta_object_id": "2025-294Z",
        "meta_epoch": "2025-12-20T12:00:02.000160",
        "meta_mean_motion": 15.88632431,
        "meta_eccentricity": 0.0001557,
        "meta_inclination": 43.0005,
        "meta_ra_of_asc_node": 134.6283,
        "meta_arg_of_pericenter": 265.4045,
        "meta_mean_anomaly": 359.9753,
        "meta_ephemeris_type": 0,
        "meta_classification_type": "U",
        "meta_norad_cat_id": 67053,
        "meta_element_set_no": 999,
        "meta_rev_at_epoch": 130,
        "meta_bstar": -0.0059938,
        "meta_mean_motion_dot": -0.01535698,
        "meta_mean_motion_ddot": 0,
        "tle_line1": "1 67053U 25294Z   25354.50002315 -.01535698  00000+0 -59938-2 0  9992",
        "tle_line2": "2 67053  43.0005 134.6283 0001557 265.4045 359.9753 15.88632431  1302"
      },
      "geometry": {
        "type": "Point",
        "coordinates": [
          109.25875080065278,
          -20.856954948467855
        ]
      }
    },
    {
      "type": "Feature",
      "properties": {
        "norad_id": 67054,
        "name": "STARLINK-35754",
        "group": "last-30-days",
        "lat": -19.300486706649426,
        "lon": 111.31141165773464,
        "alt_km": 309.3070281813043,
        "timestamp": "2025-12-20T16:47:35.026876+00:00",
        "meta_object_name": "STARLINK-35754",
        "meta_object_id": "2025-294AA",
        "meta_epoch": "2025-12-20T12:00:02.000160",
        "meta_mean_motion": 15.88664437,
        "meta_eccentricity": 0.0001597,
        "meta_inclination": 43.0003,
        "meta_ra_of_asc_node": 134.6223,
        "meta_arg_of_pericenter": 261.7577,
        "meta_mean_anomaly": 6.0811,
        "meta_ephemeris_type": 0,
        "meta_classification_type": "U",
        "meta_norad_cat_id": 67054,
        "meta_element_set_no": 999,
        "meta_rev_at_epoch": 136,
        "meta_bstar": -0.005973,
        "meta_mean_motion_dot": -0.01533239,
        "meta_mean_motion_ddot": 0,
        "tle_line1": "1 67054U 25294AA  25354.50002315 -.01533239  00000+0 -59730-2 0  9992",
        "tle_line2": "2 67054  43.0003 134.6223 0001597 261.7577   6.0811 15.88664437  1360"
      },
      "geometry": {
        "type": "Point",
        "coordinates": [
          111.31141165773464,
          -19.300486706649426
        ]
      }
    },
    {
      "type": "Feature",
      "properties": {
        "norad_id": 67055,
        "name": "STARLINK-35790",
        "group": "last-30-days",
        "lat": -17.79101350077034,
        "lon": 113.23687312116152,
        "alt_km": 309.1399045223452,
        "timestamp": "2025-12-20T16:47:35.026888+00:00",
        "meta_object_name": "STARLINK-35790",
        "meta_object_id": "2025-294AB",
        "meta_epoch": "2025-12-20T12:00:02.000160",
        "meta_mean_motion": 15.88705209,
        "meta_eccentricity": 0.0001545,
        "meta_inclination": 43.0001,
        "meta_ra_of_asc_node": 134.6159,
        "meta_arg_of_pericenter": 261.2103,
        "meta_mean_anomaly": 8.9761,
        "meta_ephemeris_type": 0,
        "meta_classification_type": "U",
        "meta_norad_cat_id": 67055,
        "meta_element_set_no": 999,
        "meta_rev_at_epoch": 155,
        "meta_bstar": -0.0060069,
        "meta_mean_motion_dot": -0.01543689,
        "meta_mean_motion_ddot": 0,
        "tle_line1": "1 67055U 25294AB  25354.50002315 -.01543689  00000+0 -60069-2 0  9990",
        "tle_line2": "2 67055  43.0001 134.6159 0001545 261.2103   8.9761 15.88705209  1559"
      },
      "geometry": {
        "type": "Point",
        "coordinates": [
          113.23687312116152,
          -17.79101350077034
        ]
      }
    },
    {
      "type": "Feature",
      "properties": {
        "norad_id": 67056,
        "name": "STARLINK-36143",
        "group": "last-30-days",
        "lat": -13.880173813490043,
        "lon": 117.98659771470574,
        "alt_km": 308.4847097258171,
        "timestamp": "2025-12-20T16:47:35.026900+00:00",
        "meta_object_name": "STARLINK-36143",
        "meta_object_id": "2025-294AC",
        "meta_epoch": "2025-12-20T12:00:02.000160",
        "meta_mean_motion": 15.88837201,
        "meta_eccentricity": 0.0001514,
        "meta_inclination": 43,
        "meta_ra_of_asc_node": 134.6007,
        "meta_arg_of_pericenter": 264.4421,
        "meta_mean_anomaly": 11.6821,
        "meta_ephemeris_type": 0,
        "meta_classification_type": "U",
        "meta_norad_cat_id": 67056,
        "meta_element_set_no": 999,
        "meta_rev_at_epoch": 155,
        "meta_bstar": -0.0060839,
        "meta_mean_motion_dot": -0.01570305,
        "meta_mean_motion_ddot": 0,
        "tle_line1": "1 67056U 25294AC  25354.50002315 -.01570305  00000+0 -60839-2 0  9991",
        "tle_line2": "2 67056  43.0000 134.6007 0001514 264.4421  11.6821 15.88837201  1551"
      },
      "geometry": {
        "type": "Point",
        "coordinates": [
          117.98659771470574,
          -13.880173813490043
        ]
      }
    },
    {
      "type": "Feature",
      "properties": {
        "norad_id": 67057,
        "name": "STARLINK-36141",
        "group": "last-30-days",
        "lat": -15.265098052382791,
        "lon": 116.3399866316711,
        "alt_km": 308.65284859304484,
        "timestamp": "2025-12-20T16:47:35.026910+00:00",
        "meta_object_name": "STARLINK-36141",
        "meta_object_id": "2025-294AD",
        "meta_epoch": "2025-12-20T12:00:02.000160",
        "meta_mean_motion": 15.88788671,
        "meta_eccentricity": 0.000159,
        "meta_inclination": 43,
        "meta_ra_of_asc_node": 134.6065,
        "meta_arg_of_pericenter": 265.6338,
        "meta_mean_anomaly": 8.405,
        "meta_ephemeris_type": 0,
        "meta_classification_type": "U",
        "meta_norad_cat_id": 67057,
        "meta_element_set_no": 999,
        "meta_rev_at_epoch": 147,
        "meta_bstar": -0.0060175,
        "meta_mean_motion_dot": -0.01551919,
        "meta_mean_motion_ddot": 0,
        "tle_line1": "1 67057U 25294AD  25354.50002315 -.01551919  00000+0 -60175-2 0  9995",
        "tle_line2": "2 67057  43.0000 134.6065 0001590 265.6338   8.4050 15.88788671  1475"
      },
      "geometry": {
        "type": "Point",
        "coordinates": [
          116.3399866316711,
          -15.265098052382791
        ]
      }
    },
    {
      "type": "Feature",
      "properties": {
        "norad_id": 67058,
        "name": "STARLINK-35767",
        "group": "last-30-days",
        "lat": -16.494887292081856,
        "lon": 114.8463991075721,
        "alt_km": 308.85387825530415,
        "timestamp": "2025-12-20T16:47:35.026931+00:00",
        "meta_object_name": "STARLINK-35767",
        "meta_object_id": "2025-294AE",
        "meta_epoch": "2025-12-20T12:00:02.000160",
        "meta_mean_motion": 15.88750989,
        "meta_eccentricity": 0.0001595,
        "meta_inclination": 43.0004,
        "meta_ra_of_asc_node": 134.6108,
        "meta_arg_of_pericenter": 265.2878,
        "meta_mean_anomaly": 6.8842,
        "meta_ephemeris_type": 0,
        "meta_classification_type": "U",
        "meta_norad_cat_id": 67058,
        "meta_element_set_no": 999,
        "meta_rev_at_epoch": 136,
        "meta_bstar": -0.0060568,
        "meta_mean_motion_dot": -0.01558206,
        "meta_mean_motion_ddot": 0,
        "tle_line1": "1 67058U 25294AE  25354.50002315 -.01558206  00000+0 -60568-2 0  9998",
        "tle_line2": "2 67058  43.0004 134.6108 0001595 265.2878   6.8842 15.88750989  1368"
      },
      "geometry": {
        "type": "Point",
        "coordinates": [
          114.8463991075721,
          -16.494887292081856
        ]
      }
    }
  ]
}